SOYUZ-MS 28             
1 66664U 25275A   26196.12126347  .00002630  00000+0  55898-4 0  9998
2 66664  51.6305 161.8506 0007251 303.7745  56.2552 15.49005161576365
CREW DRAGON 12          
1 67796U 26031A   26196.12126347  .00002630  00000+0  55898-4 0  9996
2 67796  51.6305 161.8506 0007251 303.7745  56.2552 15.49005161576328
SHENZHOU-23 (SZ-23)     
1 69180U 26113A   26195.89445800  .00001220  00000+0  20034-4 0  9995
2 69180  41.4689 153.6564 0002256 302.1088  57.9530 15.58084991296876
