{"fetched_at":"2026-07-15T17:46:58.170Z","source":"https://celestrak.org/NORAD/elements/gp.php?GROUP=stations&FORMAT=JSON","constellation":"crewed-vehicles","records":[{"OBJECT_NAME":"SOYUZ-MS 28","OBJECT_ID":"2025-275A","EPOCH":"2026-07-15T02:54:37.163808","CLASSIFICATION_TYPE":"U","MEAN_MOTION":15.49005161,"ECCENTRICITY":0.0007251,"INCLINATION":51.6305,"RA_OF_ASC_NODE":161.8506,"ARG_OF_PERICENTER":303.7745,"MEAN_ANOMALY":56.2552,"EPHEMERIS_TYPE":0,"NORAD_CAT_ID":66664,"ELEMENT_SET_NO":999,"REV_AT_EPOCH":57636,"BSTAR":0.000055898,"MEAN_MOTION_DOT":0.0000263,"MEAN_MOTION_DDOT":0},{"OBJECT_NAME":"CREW DRAGON 12","OBJECT_ID":"2026-031A","EPOCH":"2026-07-15T02:54:37.163808","CLASSIFICATION_TYPE":"U","MEAN_MOTION":15.49005161,"ECCENTRICITY":0.0007251,"INCLINATION":51.6305,"RA_OF_ASC_NODE":161.8506,"ARG_OF_PERICENTER":303.7745,"MEAN_ANOMALY":56.2552,"EPHEMERIS_TYPE":0,"NORAD_CAT_ID":67796,"ELEMENT_SET_NO":999,"REV_AT_EPOCH":57632,"BSTAR":0.000055898,"MEAN_MOTION_DOT":0.0000263,"MEAN_MOTION_DDOT":0},{"OBJECT_NAME":"SHENZHOU-23 (SZ-23)","OBJECT_ID":"2026-113A","EPOCH":"2026-07-14T21:28:01.171200","CLASSIFICATION_TYPE":"U","MEAN_MOTION":15.58084991,"ECCENTRICITY":0.00022567,"INCLINATION":41.4689,"RA_OF_ASC_NODE":153.6564,"ARG_OF_PERICENTER":302.1088,"MEAN_ANOMALY":57.953,"EPHEMERIS_TYPE":0,"NORAD_CAT_ID":69180,"ELEMENT_SET_NO":999,"REV_AT_EPOCH":29687,"BSTAR":0.000020034416,"MEAN_MOTION_DOT":0.0000122,"MEAN_MOTION_DDOT":0}]}
